DIWATA-2B               
1 43678U 18084H   25137.81526029  .00002938  00000+0  25258-3 0  9996
2 43678  98.1017 313.0738 0007919   9.0513 351.0849 14.98227460356978
ES'HAIL 2               
1 43700U 18090A   25137.56989300  .00000156  00000+0  00000+0 0  9990
2 43700   0.0166 289.6426 0002121 160.5359  16.3138  1.00269364 23717
FOX-1CLIFF (AO-95)      
1 43770U 18099N   25137.10076945  .00008976  00000+0  45951-3 0  9994
2 43770  97.4923 195.4515 0009061 295.7904  64.2394 15.16809673352991
ITASAT                  
1 43786U 18099AE  25137.59341316  .00008038  00000+0  46248-3 0  9990
2 43786  97.4573 192.4522 0012617 286.6405  73.3441 15.12647723352985
JY1SAT (JO-97)          
1 43803U 18099AX  25137.15706891  .00014265  00000+0  65868-3 0  9993
2 43803  97.4671 196.4504 0006865 214.0249 146.0547 15.20295124353212
UWE-4                   
1 43880U 18111E   25137.25537335  .00018248  00000+0  72708-3 0  9995
2 43880  97.5915  49.7857 0010107 297.9066  62.1148 15.25231563350079
DUCHIFAT-3              
1 44854U 19089C   25137.69179290  .00051265  00000+0  10657-2 0  9992
2 44854  36.9427 140.5111 0001601 180.8364 179.2390 15.44640945299406
TIANYAN 01              
1 44881U 19093C   25137.86120100  .00001237  00000+0  14910-3 0  9993
2 44881  97.7927 213.9857 0012591 310.1101  49.9010 14.85556587292705
RS-44 & BREEZE-KM R/B   
1 44909U 19096E   25137.56914352  .00000038  00000+0  10967-3 0  9990
2 44909  82.5222 242.5640 0217135 349.6827   9.9852 12.79740519251792
SALSAT                  
1 46495U 20068K   25137.87703189  .00009692  00000+0  42174-3 0  9991
2 46495  97.8599 114.8648 0009761 235.7444 124.2867 15.22431264255070
LEDSAT                  
1 49069U 21073D   25137.78015520  .00079913  00000+0  10651-2 0  9990
2 49069  97.3892 218.4170 0011781 161.0687 199.1009 15.57778946207881
XW-3 (CAS-9)            
1 50466U 21131B   25137.84370042  .00000701  00000+0  23278-3 0  9997
2 50466  98.5091 227.3095 0004025 186.9970 173.1163 14.40787161178179
GREENCUBE (IO-117)      
1 53109U 22080E   25137.24535062 -.00000003  00000+0  00000+0 0  9997
2 53109  70.1352  75.9335 0008711  13.5815 346.5078  6.42584190 66622
STRATOSAT-TK 1 (RS52S)  
1 57167U 23091B   25137.89302010  .00046729  00000+0  12216-2 0  9993
2 57167  97.5538 200.6733 0008350  43.4954 316.6948 15.38583189104521
