[
  {
    "OBJECT_NAME": "DIWATA-2B",
    "OBJECT_ID": "2018-084H",
    "EPOCH": "2025-05-17T19:33:58.489056",
    "MEAN_MOTION": 14.9822746,
    "ECCENTRICITY": 0.0007919,
    "INCLINATION": 98.1017,
    "RA_OF_ASC_NODE": 313.0738,
    "ARG_OF_PERICENTER": 9.0513,
    "MEAN_ANOMALY": 351.0849,
    "EPHEMERIS_TYPE": 0,
    "CLASSIFICATION_TYPE": "U",
    "NORAD_CAT_ID": 43678,
    "ELEMENT_SET_NO": 999,
    "REV_AT_EPOCH": 35697,
    "BSTAR": 0.00025258,
    "MEAN_MOTION_DOT": 2.938e-05,
    "MEAN_MOTION_DDOT": 0
  },
  {
    "OBJECT_NAME": "ES'HAIL 2",
    "OBJECT_ID": "2018-090A",
    "EPOCH": "2025-05-17T13:40:38.755200",
    "MEAN_MOTION": 1.00269364,
    "ECCENTRICITY": 0.0002121,
    "INCLINATION": 0.0166,
    "RA_OF_ASC_NODE": 289.6426,
    "ARG_OF_PERICENTER": 160.5359,
    "MEAN_ANOMALY": 16.3138,
    "EPHEMERIS_TYPE": 0,
    "CLASSIFICATION_TYPE": "U",
    "NORAD_CAT_ID": 43700,
    "ELEMENT_SET_NO": 999,
    "REV_AT_EPOCH": 2371,
    "BSTAR": 0,
    "MEAN_MOTION_DOT": 1.56e-06,
    "MEAN_MOTION_DDOT": 0
  },
  {
    "OBJECT_NAME": "FOX-1CLIFF (AO-95)",
    "OBJECT_ID": "2018-099N",
    "EPOCH": "2025-05-17T02:25:06.480480",
    "MEAN_MOTION": 15.16809673,
    "ECCENTRICITY": 0.0009061,
    "INCLINATION": 97.4923,
    "RA_OF_ASC_NODE": 195.4515,
    "ARG_OF_PERICENTER": 295.7904,
    "MEAN_ANOMALY": 64.2394,
    "EPHEMERIS_TYPE": 0,
    "CLASSIFICATION_TYPE": "U",
    "NORAD_CAT_ID": 43770,
    "ELEMENT_SET_NO": 999,
    "REV_AT_EPOCH": 35299,
    "BSTAR": 0.00045951,
    "MEAN_MOTION_DOT": 8.976e-05,
    "MEAN_MOTION_DDOT": 0
  },
  {
    "OBJECT_NAME": "ITASAT",
    "OBJECT_ID": "2018-099AE",
    "EPOCH": "2025-05-17T14:14:30.897024",
    "MEAN_MOTION": 15.12647723,
    "ECCENTRICITY": 0.0012617,
    "INCLINATION": 97.4573,
    "RA_OF_ASC_NODE": 192.4522,
    "ARG_OF_PERICENTER": 286.6405,
    "MEAN_ANOMALY": 73.3441,
    "EPHEMERIS_TYPE": 0,
    "CLASSIFICATION_TYPE": "U",
    "NORAD_CAT_ID": 43786,
    "ELEMENT_SET_NO": 999,
    "REV_AT_EPOCH": 35298,
    "BSTAR": 0.00046248,
    "MEAN_MOTION_DOT": 8.038e-05,
    "MEAN_MOTION_DDOT": 0
  },
  {
    "OBJECT_NAME": "JY1SAT (JO-97)",
    "OBJECT_ID": "2018-099AX",
    "EPOCH": "2025-05-17T03:46:10.753824",
    "MEAN_MOTION": 15.20295124,
    "ECCENTRICITY": 0.0006865,
    "INCLINATION": 97.4671,
    "RA_OF_ASC_NODE": 196.4504,
    "ARG_OF_PERICENTER": 214.0249,
    "MEAN_ANOMALY": 146.0547,
    "EPHEMERIS_TYPE": 0,
    "CLASSIFICATION_TYPE": "U",
    "NORAD_CAT_ID": 43803,
    "ELEMENT_SET_NO": 999,
    "REV_AT_EPOCH": 35321,
    "BSTAR": 0.00065868,
    "MEAN_MOTION_DOT": 0.00014265,
    "MEAN_MOTION_DDOT": 0
  },
  {
    "OBJECT_NAME": "UWE-4",
    "OBJECT_ID": "2018-111E",
    "EPOCH": "2025-05-17T06:07:44.257440",
    "MEAN_MOTION": 15.25231563,
    "ECCENTRICITY": 0.0010107,
    "INCLINATION": 97.5915,
    "RA_OF_ASC_NODE": 49.7857,
    "ARG_OF_PERICENTER": 297.9066,
    "MEAN_ANOMALY": 62.1148,
    "EPHEMERIS_TYPE": 0,
    "CLASSIFICATION_TYPE": "U",
    "NORAD_CAT_ID": 43880,
    "ELEMENT_SET_NO": 999,
    "REV_AT_EPOCH": 35007,
    "BSTAR": 0.00072708,
    "MEAN_MOTION_DOT": 0.00018248,
    "MEAN_MOTION_DDOT": 0
  },
  {
    "OBJECT_NAME": "DUCHIFAT-3",
    "OBJECT_ID": "2019-089C",
    "EPOCH": "2025-05-17T16:36:10.906560",
    "MEAN_MOTION": 15.44640945,
    "ECCENTRICITY": 0.0001601,
    "INCLINATION": 36.9427,
    "RA_OF_ASC_NODE": 140.5111,
    "ARG_OF_PERICENTER": 180.8364,
    "MEAN_ANOMALY": 179.239,
    "EPHEMERIS_TYPE": 0,
    "CLASSIFICATION_TYPE": "U",
    "NORAD_CAT_ID": 44854,
    "ELEMENT_SET_NO": 999,
    "REV_AT_EPOCH": 29940,
    "BSTAR": 0.0010657,
    "MEAN_MOTION_DOT": 0.00051265,
    "MEAN_MOTION_DDOT": 0
  },
  {
    "OBJECT_NAME": "TIANYAN 01",
    "OBJECT_ID": "2019-093C",
    "EPOCH": "2025-05-17T20:40:07.766400",
    "MEAN_MOTION": 14.85556587,
    "ECCENTRICITY": 0.0012591,
    "INCLINATION": 97.7927,
    "RA_OF_ASC_NODE": 213.9857,
    "ARG_OF_PERICENTER": 310.1101,
    "MEAN_ANOMALY": 49.901,
    "EPHEMERIS_TYPE": 0,
    "CLASSIFICATION_TYPE": "U",
    "NORAD_CAT_ID": 44881,
    "ELEMENT_SET_NO": 999,
    "REV_AT_EPOCH": 29270,
    "BSTAR": 0.0001491,
    "MEAN_MOTION_DOT": 1.237e-05,
    "MEAN_MOTION_DDOT": 0
  },
  {
    "OBJECT_NAME": "RS-44 & BREEZE-KM R/B",
    "OBJECT_ID": "2019-096E",
    "EPOCH": "2025-05-17T13:39:34.000128",
    "MEAN_MOTION": 12.79740519,
    "ECCENTRICITY": 0.0217135,
    "INCLINATION": 82.5222,
    "RA_OF_ASC_NODE": 242.564,
    "ARG_OF_PERICENTER": 349.6827,
    "MEAN_ANOMALY": 9.9852,
    "EPHEMERIS_TYPE": 0,
    "CLASSIFICATION_TYPE": "U",
    "NORAD_CAT_ID": 44909,
    "ELEMENT_SET_NO": 999,
    "REV_AT_EPOCH": 25179,
    "BSTAR": 0.00010967,
    "MEAN_MOTION_DOT": 3.8e-07,
    "MEAN_MOTION_DDOT": 0
  },
  {
    "OBJECT_NAME": "SALSAT",
    "OBJECT_ID": "2020-068K",
    "EPOCH": "2025-05-17T21:02:55.555296",
    "MEAN_MOTION": 15.22431264,
    "ECCENTRICITY": 0.0009761,
    "INCLINATION": 97.8599,
    "RA_OF_ASC_NODE": 114.8648,
    "ARG_OF_PERICENTER": 235.7444,
    "MEAN_ANOMALY": 124.2867,
    "EPHEMERIS_TYPE": 0,
    "CLASSIFICATION_TYPE": "U",
    "NORAD_CAT_ID": 46495,
    "ELEMENT_SET_NO": 999,
    "REV_AT_EPOCH": 25507,
    "BSTAR": 0.00042174,
    "MEAN_MOTION_DOT": 9.692e-05,
    "MEAN_MOTION_DDOT": 0
  },
  {
    "OBJECT_NAME": "LEDSAT",
    "OBJECT_ID": "2021-073D",
    "EPOCH": "2025-05-17T18:43:25.409280",
    "MEAN_MOTION": 15.57778946,
    "ECCENTRICITY": 0.0011781,
    "INCLINATION": 97.3892,
    "RA_OF_ASC_NODE": 218.417,
    "ARG_OF_PERICENTER": 161.0687,
    "MEAN_ANOMALY": 199.1009,
    "EPHEMERIS_TYPE": 0,
    "CLASSIFICATION_TYPE": "U",
    "NORAD_CAT_ID": 49069,
    "ELEMENT_SET_NO": 999,
    "REV_AT_EPOCH": 20788,
    "BSTAR": 0.0010651,
    "MEAN_MOTION_DOT": 0.00079913,
    "MEAN_MOTION_DDOT": 0
  },
  {
    "OBJECT_NAME": "XW-3 (CAS-9)",
    "OBJECT_ID": "2021-131B",
    "EPOCH": "2025-05-17T20:14:55.716288",
    "MEAN_MOTION": 14.40787161,
    "ECCENTRICITY": 0.0004025,
    "INCLINATION": 98.5091,
    "RA_OF_ASC_NODE": 227.3095,
    "ARG_OF_PERICENTER": 186.997,
    "MEAN_ANOMALY": 173.1163,
    "EPHEMERIS_TYPE": 0,
    "CLASSIFICATION_TYPE": "U",
    "NORAD_CAT_ID": 50466,
    "ELEMENT_SET_NO": 999,
    "REV_AT_EPOCH": 17817,
    "BSTAR": 0.00023278,
    "MEAN_MOTION_DOT": 7.01e-06,
    "MEAN_MOTION_DDOT": 0
  },
  {
    "OBJECT_NAME": "GREENCUBE (IO-117)",
    "OBJECT_ID": "2022-080E",
    "EPOCH": "2025-05-17T05:53:18.293568",
    "MEAN_MOTION": 6.4258419,
    "ECCENTRICITY": 0.0008711,
    "INCLINATION": 70.1352,
    "RA_OF_ASC_NODE": 75.9335,
    "ARG_OF_PERICENTER": 13.5815,
    "MEAN_ANOMALY": 346.5078,
    "EPHEMERIS_TYPE": 0,
    "CLASSIFICATION_TYPE": "U",
    "NORAD_CAT_ID": 53109,
    "ELEMENT_SET_NO": 999,
    "REV_AT_EPOCH": 6662,
    "BSTAR": 0,
    "MEAN_MOTION_DOT": -3e-08,
    "MEAN_MOTION_DDOT": 0
  },
  {
    "OBJECT_NAME": "STRATOSAT-TK 1 (RS52S)",
    "OBJECT_ID": "2023-091B",
    "EPOCH": "2025-05-17T21:25:56.936640",
    "MEAN_MOTION": 15.38583189,
    "ECCENTRICITY": 0.000835,
    "INCLINATION": 97.5538,
    "RA_OF_ASC_NODE": 200.6733,
    "ARG_OF_PERICENTER": 43.4954,
    "MEAN_ANOMALY": 316.6948,
    "EPHEMERIS_TYPE": 0,
    "CLASSIFICATION_TYPE": "U",
    "NORAD_CAT_ID": 57167,
    "ELEMENT_SET_NO": 999,
    "REV_AT_EPOCH": 10452,
    "BSTAR": 0.0012216,
    "MEAN_MOTION_DOT": 0.00046729,
    "MEAN_MOTION_DDOT": 0
  }
]